STARLINK-30517          
1 57995U 23153E   26087.83335647 -.00003820  00000+0 -12938-3 0  9991
2 57995  43.0008 319.1920 0001365 262.6112  10.0008 15.27578293  5645
STARLINK-30523          
1 57997U 23153G   26087.70047247  .00001685  00000+0  70723-4 0  9997
2 57997  43.0063 319.7126 0001610 262.2465  97.8204 15.27585969137805
STARLINK-30531          
1 57998U 23153H   26087.83335647  .00010442  00000+0  38856-3 0  9997
2 57998  43.0033 318.8260 0001551 267.6512 160.6075 15.27568687  5647
STARLINK-30552          
1 57999U 23153J   26087.65340984  .00011571  00000+0  44054-3 0  9999
2 57999  43.0019 320.2129 0001429 261.4029  98.6661 15.26726719137796
STARLINK-30545          
1 58000U 23153K   26087.34142242  .00004321  00000+0  16643-3 0  9994
2 58000  43.0007 321.3056 0001493 277.6633  82.4049 15.27586608137758
STARLINK-30535          
1 58001U 23153L   26087.34527671  .00006491  00000+0  24519-3 0  9999
2 58001  42.9999 321.3331 0001404 264.1985  95.8707 15.27581729137754
STARLINK-30540          
1 58002U 23153M   26087.68248193  .00002537  00000+0  10166-3 0  9996
2 58002  43.0030 319.5562 0001360 260.8841  99.1857 15.27587233137707
STARLINK-30546          
1 58003U 23153N   26087.83335647  .01621814  00000+0  25368-1 0  9999
2 58003  42.9994 317.6216 0001786 280.9560 285.4368 15.49918590  5847
STARLINK-30539          
1 58004U 23153P   26087.67282330 -.00008503  00000+0 -30798-3 0  9992
2 58004  43.0042 319.4934 0001919 269.2968  90.7664 15.26706801137792
STARLINK-30530          
1 58005U 23153Q   26086.64144374  .00175952  00000+0  63529-2 0  9992
2 58005  43.0043 325.5116 0001726 287.4478  72.6185 15.27056085137642
STARLINK-30526          
1 58006U 23153R   26087.83920168  .00006653  00000+0  26372-3 0  9995
2 58006  42.9972 293.8455 0001104  90.6047 269.4930 15.25936812138111
STARLINK-30527          
1 58007U 23153S   26087.48167938  .00001438  00000+0  61803-4 0  9990
2 58007  43.0003  92.2496 0000719 255.6456 104.4316 15.27565644140339
STARLINK-30522          
1 58008U 23153T   26086.93768684  .00001222  00000+0  53919-4 0  9995
2 58008  43.0006 324.2878 0001373 268.4583  91.6111 15.27587264137681
STARLINK-30486          
1 58009U 23153U   26087.68377072  .00008331  00000+0  31183-3 0  9992
2 58009  43.0044 319.5705 0001008 269.2359  90.8377 15.27591590137700
STARLINK-30520          
1 58010U 23153V   26087.67091688  .00014911  00000+0  54985-3 0  9995
2 58010  43.0015 319.4692 0001424 269.3915  90.6773 15.27604621137703
STARLINK-30497          
1 58011U 23153W   26087.67477185  .00003504  00000+0  13677-3 0  9995
2 58011  43.0012 319.4956 0001689 266.4496  93.6162 15.27587157137809
