[{"OBJECT_NAME":"STARLINK-30517","OBJECT_ID":"2023-153E","EPOCH":"2026-03-28T20:00:01.999008","MEAN_MOTION":15.27578293,"ECCENTRICITY":0.0001365,"INCLINATION":43.0008,"RA_OF_ASC_NODE":319.192,"ARG_OF_PERICENTER":262.6112,"MEAN_ANOMALY":10.0008,"EPHEMERIS_TYPE":0,"CLASSIFICATION_TYPE":"U","NORAD_CAT_ID":57995,"ELEMENT_SET_NO":999,"REV_AT_EPOCH":564,"BSTAR":-0.00012938,"MEAN_MOTION_DOT":-3.82e-5,"MEAN_MOTION_DDOT":0},{"OBJECT_NAME":"STARLINK-30523","OBJECT_ID":"2023-153G","EPOCH":"2026-03-28T16:48:40.821408","MEAN_MOTION":15.27585969,"ECCENTRICITY":0.000161,"INCLINATION":43.0063,"RA_OF_ASC_NODE":319.7126,"ARG_OF_PERICENTER":262.2465,"MEAN_ANOMALY":97.8204,"EPHEMERIS_TYPE":0,"CLASSIFICATION_TYPE":"U","NORAD_CAT_ID":57997,"ELEMENT_SET_NO":999,"REV_AT_EPOCH":13780,"BSTAR":7.0723e-5,"MEAN_MOTION_DOT":1.685e-5,"MEAN_MOTION_DDOT":0},{"OBJECT_NAME":"STARLINK-30531","OBJECT_ID":"2023-153H","EPOCH":"2026-03-28T20:00:01.999008","MEAN_MOTION":15.27568687,"ECCENTRICITY":0.0001551,"INCLINATION":43.0033,"RA_OF_ASC_NODE":318.826,"ARG_OF_PERICENTER":267.6512,"MEAN_ANOMALY":160.6075,"EPHEMERIS_TYPE":0,"CLASSIFICATION_TYPE":"U","NORAD_CAT_ID":57998,"ELEMENT_SET_NO":999,"REV_AT_EPOCH":564,"BSTAR":0.00038856,"MEAN_MOTION_DOT":0.00010442,"MEAN_MOTION_DDOT":0},{"OBJECT_NAME":"STARLINK-30552","OBJECT_ID":"2023-153J","EPOCH":"2026-03-28T15:40:54.610176","MEAN_MOTION":15.26726719,"ECCENTRICITY":0.0001429,"INCLINATION":43.0019,"RA_OF_ASC_NODE":320.2129,"ARG_OF_PERICENTER":261.4029,"MEAN_ANOMALY":98.6661,"EPHEMERIS_TYPE":0,"CLASSIFICATION_TYPE":"U","NORAD_CAT_ID":57999,"ELEMENT_SET_NO":999,"REV_AT_EPOCH":13779,"BSTAR":0.00044054,"MEAN_MOTION_DOT":0.00011571,"MEAN_MOTION_DDOT":0},{"OBJECT_NAME":"STARLINK-30545","OBJECT_ID":"2023-153K","EPOCH":"2026-03-28T08:11:38.897088","MEAN_MOTION":15.27586608,"ECCENTRICITY":0.0001493,"INCLINATION":43.0007,"RA_OF_ASC_NODE":321.3056,"ARG_OF_PERICENTER":277.6633,"MEAN_ANOMALY":82.4049,"EPHEMERIS_TYPE":0,"CLASSIFICATION_TYPE":"U","NORAD_CAT_ID":58000,"ELEMENT_SET_NO":999,"REV_AT_EPOCH":13775,"BSTAR":0.00016643179,"MEAN_MOTION_DOT":4.321e-5,"MEAN_MOTION_DDOT":0},{"OBJECT_NAME":"STARLINK-30535","OBJECT_ID":"2023-153L","EPOCH":"2026-03-28T08:17:11.907744","MEAN_MOTION":15.27581729,"ECCENTRICITY":0.00014048,"INCLINATION":42.9999,"RA_OF_ASC_NODE":321.3331,"ARG_OF_PERICENTER":264.1985,"MEAN_ANOMALY":95.8707,"EPHEMERIS_TYPE":0,"CLASSIFICATION_TYPE":"U","NORAD_CAT_ID":58001,"ELEMENT_SET_NO":999,"REV_AT_EPOCH":13775,"BSTAR":0.00024518594,"MEAN_MOTION_DOT":6.491e-5,"MEAN_MOTION_DDOT":0},{"OBJECT_NAME":"STARLINK-30540","OBJECT_ID":"2023-153M","EPOCH":"2026-03-28T16:22:46.438752","MEAN_MOTION":15.27587233,"ECCENTRICITY":0.000136,"INCLINATION":43.003,"RA_OF_ASC_NODE":319.5562,"ARG_OF_PERICENTER":260.8841,"MEAN_ANOMALY":99.1857,"EPHEMERIS_TYPE":0,"CLASSIFICATION_TYPE":"U","NORAD_CAT_ID":58002,"ELEMENT_SET_NO":999,"REV_AT_EPOCH":13770,"BSTAR":0.00010166,"MEAN_MOTION_DOT":2.537e-5,"MEAN_MOTION_DDOT":0},{"OBJECT_NAME":"STARLINK-30546","OBJECT_ID":"2023-153N","EPOCH":"2026-03-28T20:00:01.999008","MEAN_MOTION":15.4991859,"ECCENTRICITY":0.0001786,"INCLINATION":42.9994,"RA_OF_ASC_NODE":317.6216,"ARG_OF_PERICENTER":280.956,"MEAN_ANOMALY":285.4368,"EPHEMERIS_TYPE":0,"CLASSIFICATION_TYPE":"U","NORAD_CAT_ID":58003,"ELEMENT_SET_NO":999,"REV_AT_EPOCH":584,"BSTAR":0.025368,"MEAN_MOTION_DOT":0.01621814,"MEAN_MOTION_DDOT":0},{"OBJECT_NAME":"STARLINK-30539","OBJECT_ID":"2023-153P","EPOCH":"2026-03-28T16:08:51.933120","MEAN_MOTION":15.26706801,"ECCENTRICITY":0.0001919,"INCLINATION":43.0042,"RA_OF_ASC_NODE":319.4934,"ARG_OF_PERICENTER":269.2968,"MEAN_ANOMALY":90.7664,"EPHEMERIS_TYPE":0,"CLASSIFICATION_TYPE":"U","NORAD_CAT_ID":58004,"ELEMENT_SET_NO":999,"REV_AT_EPOCH":13779,"BSTAR":-0.00030798,"MEAN_MOTION_DOT":-8.503e-5,"MEAN_MOTION_DDOT":0},{"OBJECT_NAME":"STARLINK-30530","OBJECT_ID":"2023-153Q","EPOCH":"2026-03-27T15:23:40.739136","MEAN_MOTION":15.27056085,"ECCENTRICITY":0.0001726,"INCLINATION":43.0043,"RA_OF_ASC_NODE":325.5116,"ARG_OF_PERICENTER":287.4478,"MEAN_ANOMALY":72.6185,"EPHEMERIS_TYPE":0,"CLASSIFICATION_TYPE":"U","NORAD_CAT_ID":58005,"ELEMENT_SET_NO":999,"REV_AT_EPOCH":13764,"BSTAR":0.0063529,"MEAN_MOTION_DOT":0.00175952,"MEAN_MOTION_DDOT":0},{"OBJECT_NAME":"STARLINK-30526","OBJECT_ID":"2023-153R","EPOCH":"2026-03-28T20:08:27.025152","MEAN_MOTION":15.25936812,"ECCENTRICITY":0.0001104,"INCLINATION":42.9972,"RA_OF_ASC_NODE":293.8455,"ARG_OF_PERICENTER":90.6047,"MEAN_ANOMALY":269.493,"EPHEMERIS_TYPE":0,"CLASSIFICATION_TYPE":"U","NORAD_CAT_ID":58006,"ELEMENT_SET_NO":999,"REV_AT_EPOCH":13811,"BSTAR":0.00026372,"MEAN_MOTION_DOT":6.653e-5,"MEAN_MOTION_DDOT":0},{"OBJECT_NAME":"STARLINK-30527","OBJECT_ID":"2023-153S","EPOCH":"2026-03-28T11:33:37.098432","MEAN_MOTION":15.27565644,"ECCENTRICITY":7.19e-5,"INCLINATION":43.0003,"RA_OF_ASC_NODE":92.2496,"ARG_OF_PERICENTER":255.6456,"MEAN_ANOMALY":104.4316,"EPHEMERIS_TYPE":0,"CLASSIFICATION_TYPE":"U","NORAD_CAT_ID":58007,"ELEMENT_SET_NO":999,"REV_AT_EPOCH":14033,"BSTAR":6.1803e-5,"MEAN_MOTION_DOT":1.438e-5,"MEAN_MOTION_DDOT":0},{"OBJECT_NAME":"STARLINK-30522","OBJECT_ID":"2023-153T","EPOCH":"2026-03-27T22:30:16.142976","MEAN_MOTION":15.27587264,"ECCENTRICITY":0.0001373,"INCLINATION":43.0006,"RA_OF_ASC_NODE":324.2878,"ARG_OF_PERICENTER":268.4583,"MEAN_ANOMALY":91.6111,"EPHEMERIS_TYPE":0,"CLASSIFICATION_TYPE":"U","NORAD_CAT_ID":58008,"ELEMENT_SET_NO":999,"REV_AT_EPOCH":13768,"BSTAR":5.3919e-5,"MEAN_MOTION_DOT":1.222e-5,"MEAN_MOTION_DDOT":0},{"OBJECT_NAME":"STARLINK-30486","OBJECT_ID":"2023-153U","EPOCH":"2026-03-28T16:24:37.790208","MEAN_MOTION":15.2759159,"ECCENTRICITY":0.0001008,"INCLINATION":43.0044,"RA_OF_ASC_NODE":319.5705,"ARG_OF_PERICENTER":269.2359,"MEAN_ANOMALY":90.8377,"EPHEMERIS_TYPE":0,"CLASSIFICATION_TYPE":"U","NORAD_CAT_ID":58009,"ELEMENT_SET_NO":999,"REV_AT_EPOCH":13770,"BSTAR":0.00031183,"MEAN_MOTION_DOT":8.331e-5,"MEAN_MOTION_DDOT":0},{"OBJECT_NAME":"STARLINK-30520","OBJECT_ID":"2023-153V","EPOCH":"2026-03-28T16:06:07.218432","MEAN_MOTION":15.27604621,"ECCENTRICITY":0.0001424,"INCLINATION":43.0015,"RA_OF_ASC_NODE":319.4692,"ARG_OF_PERICENTER":269.3915,"MEAN_ANOMALY":90.6773,"EPHEMERIS_TYPE":0,"CLASSIFICATION_TYPE":"U","NORAD_CAT_ID":58010,"ELEMENT_SET_NO":999,"REV_AT_EPOCH":13770,"BSTAR":0.00054985,"MEAN_MOTION_DOT":0.00014911,"MEAN_MOTION_DDOT":0},{"OBJECT_NAME":"STARLINK-30497","OBJECT_ID":"2023-153W","EPOCH":"2026-03-28T16:11:40.287840","MEAN_MOTION":15.27587157,"ECCENTRICITY":0.0001689,"INCLINATION":43.0012,"RA_OF_ASC_NODE":319.4956,"ARG_OF_PERICENTER":266.4496,"MEAN_ANOMALY":93.6162,"EPHEMERIS_TYPE":0,"CLASSIFICATION_TYPE":"U","NORAD_CAT_ID":58011,"ELEMENT_SET_NO":999,"REV_AT_EPOCH":13780,"BSTAR":0.00013677,"MEAN_MOTION_DOT":3.504e-5,"MEAN_MOTION_DDOT":0}]
